OBJECT_NAME,OBJECT_ID,EPOCH,MEAN_MOTION,ECCENTRICITY,INCLINATION,RA_OF_ASC_NODE,ARG_OF_PERICENTER,MEAN_ANOMALY,EPHEMERIS_TYPE,CLASSIFICATION_TYPE,NORAD_CAT_ID,ELEMENT_SET_NO,REV_AT_EPOCH,BSTAR,MEAN_MOTION_DOT,MEAN_MOTION_DDOT
TIANQI-17,2025-105B,2026-06-26T20:32:01.897728,13.99158969,.00099763,44.9818,338.6818,71.0074,289.1839,0,U,64059,999,5655,.12559348E-3,.54E-6,0
TIANQI-18,2025-105C,2026-06-26T21:24:16.730784,13.99139924,.00102303,44.9864,339.0432,79.3794,280.8191,0,U,64060,999,5655,.12712754E-3,.57E-6,0
TIANQI-20,2025-105D,2026-06-26T20:57:12.882528,13.99142856,.00095363,44.9870,338.9499,72.7097,287.4779,0,U,64061,999,5656,.12280044E-3,.5E-6,0
STARLINK-11741 [DTC],2025-107A,2026-06-26T22:27:37.615392,15.70954014,.00006601,42.9943,160.2718,167.2689,192.8195,0,U,64064,999,6447,.14232444E-2,.187242E-2,0
STARLINK-11709 [DTC],2025-107B,2026-06-26T23:28:36.335712,15.70906935,.00014224,42.9969,159.7159,235.6674,124.4059,0,U,64065,999,6448,.11987251E-2,.156738E-2,0
STARLINK-11737 [DTC],2025-107C,2026-06-26T23:05:40.285248,15.70974867,.00016284,42.9988,159.5891,222.2697,137.8045,0,U,64066,999,6448,.20346798E-2,.270846E-2,0
STARLINK-11726 [DTC],2025-107D,2026-06-26T06:03:13.122144,15.70817843,.0000549,42.9992,163.7192,250.9159,109.1649,0,U,64067,999,6437,.13472E-2,.175964E-2,0
STARLINK-11700 [DTC],2025-107E,2026-06-26T16:07:25.463136,15.70883889,.00008392,42.9997,161.7259,240.6207,119.4577,0,U,64068,999,6443,.11235135E-2,.146551E-2,0
STARLINK-11649 [DTC],2025-107F,2026-06-26T22:35:16.573056,15.70963128,.00049175,42.9999,160.3122,276.4412,83.5896,0,U,64069,999,6447,.15624935E-2,.206242E-2,0
STARLINK-11713 [DTC],2025-107G,2026-06-26T23:20:57.489504,15.70880687,.00017344,42.9993,159.6721,247.4562,112.6122,0,U,64070,999,6448,.63908005E-3,.82515E-3,0
STARLINK-11719 [DTC],2025-107H,2026-06-26T20:40:46.484832,15.70962434,.0000648,42.9976,160.5673,309.2640,50.8170,0,U,64071,999,6446,.14475281E-2,.190589E-2,0
STARLINK-11733 [DTC],2025-107J,2026-06-26T21:26:27.780576,15.70940605,.00027577,42.9999,159.9267,285.8199,74.2365,0,U,64072,999,6447,.13595146E-2,.178561E-2,0
STARLINK-11729 [DTC],2025-107K,2026-06-26T22:19:58.560096,15.70912098,.00023734,43.0019,160.2259,263.0268,97.0330,0,U,64073,999,6447,.20649966E-2,.274284E-2,0
STARLINK-11730 [DTC],2025-107L,2026-06-26T23:36:14.827680,15.70899230,.00017114,42.9990,159.7559,240.6650,119.4047,0,U,64074,999,6448,.13601693E-2,.178318E-2,0
STARLINK-11723 [DTC],2025-107M,2026-06-26T23:13:18.689088,15.70933955,.00013636,42.9993,159.6272,261.1279,98.9435,0,U,64075,999,6448,.19386588E-2,.257172E-2,0
STARLINK-11715 [DTC],2025-107N,2026-06-26T22:42:43.871904,15.70973875,.0002982,43.0004,159.4566,142.8354,217.2721,0,U,64076,999,6448,.13200294E-2,.173502E-2,0
STARLINK-34201,2025-107P,2026-06-26T15:58:40.937376,15.27571108,.00004413,43.0026,306.3974,297.7933,62.2874,0,U,64077,999,6169,.59307394E-3,.16089E-3,0
STARLINK-34190,2025-107Q,2026-06-26T16:55:49.733472,15.27565290,.00015018,43.0005,305.8326,283.6769,76.3916,0,U,64078,999,6279,.17117074E-3,.4449E-4,0
STARLINK-34168,2025-107R,2026-06-26T18:04:04.378080,15.27579462,.00016747,43.0039,305.3247,283.7732,76.2933,0,U,64079,999,6280,.93141436E-3,.25457E-3,0
STARLINK-34098,2025-107S,2026-06-26T18:15:10.904832,15.27588771,.00017588,43.0018,305.3818,260.0443,100.0210,0,U,64080,999,6280,.98742453E-3,.27017E-3,0
STARLINK-34180,2025-107T,2026-06-26T17:12:28.789632,15.27517773,.00013876,43.0023,305.9183,276.5690,83.5004,0,U,64081,999,6279,-.74814283E-3,-.20753E-3,0
STARLINK-34171,2025-107U,2026-06-25T20:00:18.518688,15.27624735,.00028568,43.0057,310.4575,266.5316,93.5209,0,U,64082,999,6266,.81971507E-3,.22395E-3,0
STARLINK-34126,2025-107V,2026-06-26T17:27:18.399456,15.27554073,.00016207,43.0019,305.9974,280.0748,79.9920,0,U,64083,999,6170,.56460125E-3,.15295E-3,0
STARLINK-34157,2025-107W,2026-06-26T18:11:28.935456,15.27579352,.00020124,43.0011,305.3595,285.7833,74.2797,0,U,64084,999,6278,.99556428E-3,.27235E-3,0
STARLINK-34140,2025-107X,2026-06-26T17:06:55.549152,15.27581115,.00017828,43.0005,305.8848,255.3758,104.6896,0,U,64085,999,6277,.99455615E-3,.27208E-3,0
STARLINK-34132,2025-107Y,2026-06-26T17:21:43.846560,15.27597985,.00017476,43.0020,305.9643,264.9420,95.1233,0,U,64086,999,6276,.12697767E-2,.34864E-3,0
2025-108A,2025-108A,2026-06-26T23:37:53.803200,15.16294775,.00012398,97.4770,252.5648,247.4389,112.6713,0,U,64087,999,6080,.27685847E-3,.5296E-4,0
2025-108B,2025-108B,2026-06-26T22:36:22.157568,15.18635548,.00068517,97.4732,253.6328,348.2484,11.8589,0,U,64088,999,6084,.45468429E-3,.9357E-4,0
2025-108C,2025-108C,2026-06-26T23:10:27.605856,15.13339422,.00091974,97.4689,251.8988,13.3942,346.7532,0,U,64089,999,6074,.29422131E-3,.5184E-4,0
