TIANQI-17               
1 64059U 25105B   26177.85557752  .00000054  00000+0  12559-3 0  9997
2 64059  44.9818 338.6818 0009976  71.0074 289.1839 13.99158969 56558
TIANQI-18               
1 64060U 25105C   26177.89186031  .00000057  00000+0  12713-3 0  9996
2 64060  44.9864 339.0432 0010230  79.3794 280.8191 13.99139924 56552
TIANQI-20               
1 64061U 25105D   26177.87306577  .00000050  00000+0  12280-3 0  9996
2 64061  44.9870 338.9499 0009536  72.7097 287.4779 13.99142856 56565
STARLINK-11741 [DTC]    
1 64064U 25107A   26177.93585203  .00187242  00000+0  14232-2 0  9990
2 64064  42.9943 160.2718 0000660 167.2689 192.8195 15.70954014 64471
STARLINK-11709 [DTC]    
1 64065U 25107B   26177.97819833  .00156738  00000+0  11987-2 0  9994
2 64065  42.9969 159.7159 0001422 235.6674 124.4059 15.70906935 64483
STARLINK-11737 [DTC]    
1 64066U 25107C   26177.96227182  .00270846  00000+0  20347-2 0  9991
2 64066  42.9988 159.5891 0001628 222.2697 137.8045 15.70974867 64483
STARLINK-11726 [DTC]    
1 64067U 25107D   26177.25223521  .00175964  00000+0  13472-2 0  9993
2 64067  42.9992 163.7192 0000549 250.9159 109.1649 15.70817843 64372
STARLINK-11700 [DTC]    
1 64068U 25107E   26177.67182249  .00146551  00000+0  11235-2 0  9996
2 64068  42.9997 161.7259 0000839 240.6207 119.4577 15.70883889 64436
STARLINK-11649 [DTC]    
1 64069U 25107F   26177.94116404  .00206242  00000+0  15625-2 0  9998
2 64069  42.9999 160.3122 0004917 276.4412  83.5896 15.70963128 64473
STARLINK-11713 [DTC]    
1 64070U 25107G   26177.97288761  .00082515  00000+0  63908-3 0  9992
2 64070  42.9993 159.6721 0001734 247.4562 112.6122 15.70880687 64488
STARLINK-11719 [DTC]    
1 64071U 25107H   26177.86164913  .00190589  00000+0  14475-2 0  9998
2 64071  42.9976 160.5673 0000648 309.2640  50.8170 15.70962434 64469
STARLINK-11733 [DTC]    
1 64072U 25107J   26177.89337709  .00178561  00000+0  13595-2 0  9995
2 64072  42.9999 159.9267 0002757 285.8199  74.2365 15.70940605 64470
STARLINK-11729 [DTC]    
1 64073U 25107K   26177.93053889  .00274284  00000+0  20650-2 0  9994
2 64073  43.0019 160.2259 0002373 263.0268  97.0330 15.70912098 64471
STARLINK-11730 [DTC]    
1 64074U 25107L   26177.98350495  .00178318  00000+0  13602-2 0  9993
2 64074  42.9990 159.7559 0001711 240.6650 119.4047 15.70899230 64482
STARLINK-11723 [DTC]    
1 64075U 25107M   26177.96757742  .00257172  00000+0  19387-2 0  9990
2 64075  42.9993 159.6272 0001363 261.1279  98.9435 15.70933955 64480
STARLINK-11715 [DTC]    
1 64076U 25107N   26177.94634111  .00173502  00000+0  13200-2 0  9995
2 64076  43.0004 159.4566 0002982 142.8354 217.2721 15.70973875 64486
STARLINK-34201          
1 64077U 25107P   26177.66575159  .00016089  00000+0  59307-3 0  9996
2 64077  43.0026 306.3974 0000441 297.7933  62.2874 15.27571108 61690
STARLINK-34190          
1 64078U 25107Q   26177.70543673  .00004449  00000+0  17117-3 0  9998
2 64078  43.0005 305.8326 0001501 283.6769  76.3916 15.27565290 62792
STARLINK-34168          
1 64079U 25107R   26177.75282845  .00025457  00000+0  93141-3 0  9998
2 64079  43.0039 305.3247 0001674 283.7732  76.2933 15.27579462 62805
STARLINK-34098          
1 64080U 25107S   26177.76054288  .00027017  00000+0  98742-3 0  9995
2 64080  43.0018 305.3818 0001758 260.0443 100.0210 15.27588771 62805
STARLINK-34180          
1 64081U 25107T   26177.71699988 -.00020753  00000+0 -74814-3 0  9999
2 64081  43.0023 305.9183 0001387 276.5690  83.5004 15.27517773 62795
STARLINK-34171          
1 64082U 25107U   26176.83354767  .00022395  00000+0  81972-3 0  9990
2 64082  43.0057 310.4575 0002856 266.5316  93.5209 15.27624735 62666
STARLINK-34126          
1 64083U 25107V   26177.72729629  .00015295  00000+0  56460-3 0  9998
2 64083  43.0019 305.9974 0001620 280.0748  79.9920 15.27554073 61704
STARLINK-34157          
1 64084U 25107W   26177.75797379  .00027235  00000+0  99556-3 0  9999
2 64084  43.0011 305.3595 0002012 285.7833  74.2797 15.27579352 62789
STARLINK-34140          
1 64085U 25107X   26177.71314293  .00027208  00000+0  99456-3 0  9995
2 64085  43.0005 305.8848 0001782 255.3758 104.6896 15.27581115 62778
STARLINK-34132          
1 64086U 25107Y   26177.72342415  .00034864  00000+0  12698-2 0  9992
2 64086  43.0020 305.9643 0001747 264.9420  95.1233 15.27597985 62763
2025-108A               
1 64087U 25108A   26177.98465050  .00005296  00000+0  27686-3 0  9994
2 64087  97.4770 252.5648 0001239 247.4389 112.6713 15.16294775 60807
2025-108B               
1 64088U 25108B   26177.94192312  .00009357  00000+0  45468-3 0  9999
2 64088  97.4732 253.6328 0006851 348.2484  11.8589 15.18635548 60848
2025-108C               
1 64089U 25108C   26177.96559729  .00005184  00000+0  29422-3 0  9997
2 64089  97.4689 251.8988 0009197  13.3942 346.7532 15.13339422 60741
